{
    "links": {
        "self": "http://www.neowsapp.com/rest/v1/neo/3602576?api_key=iIulBulltgU6a56xZRHN4H3l9WmuAYTsLGpBGhQ2"
    },
    "id": "3602576",
    "neo_reference_id": "3602576",
    "name": "(2012 GA12)",
    "designation": "2012 GA12",
    "nasa_jpl_url": "http://ssd.jpl.nasa.gov/sbdb.cgi?sstr=3602576",
    "absolute_magnitude_h": 22.8,
    "estimated_diameter": {
        "kilometers": {
            "estimated_diameter_min": 0.0732073989,
            "estimated_diameter_max": 0.1636967205
        },
        "meters": {
            "estimated_diameter_min": 73.2073989347,
            "estimated_diameter_max": 163.696720474
        },
        "miles": {
            "estimated_diameter_min": 0.0454889547,
            "estimated_diameter_max": 0.1017163949
        },
        "feet": {
            "estimated_diameter_min": 240.181762721,
            "estimated_diameter_max": 537.0627483999
        }
    },
    "is_potentially_hazardous_asteroid": false,
    "close_approach_data": [
        {
            "close_approach_date": "2012-01-22",
            "close_approach_date_full": "2012-Jan-22 06:21",
            "epoch_date_close_approach": 1327213260000,
            "relative_velocity": {
                "kilometers_per_second": "23.8734744067",
                "kilometers_per_hour": "85944.5078642449",
                "miles_per_hour": "53402.5749004249"
            },
            "miss_distance": {
                "astronomical": "0.0748727542",
                "lunar": "29.1255013838",
                "kilometers": "11200804.549353554",
                "miles": "6959857.2141008852"
            },
            "orbiting_body": "Venus"
        },
        {
            "close_approach_date": "2012-03-31",
            "close_approach_date_full": "2012-Mar-31 00:19",
            "epoch_date_close_approach": 1333153140000,
            "relative_velocity": {
                "kilometers_per_second": "20.6282713146",
                "kilometers_per_hour": "74261.7767325125",
                "miles_per_hour": "46143.3801035992"
            },
            "miss_distance": {
                "astronomical": "0.0719459196",
                "lunar": "27.9869627244",
                "kilometers": "10762956.327351252",
                "miles": "6687790.9448291976"
            },
            "orbiting_body": "Earth"
        }
    ],
    "orbital_data": {
        "orbit_id": "7",
        "orbit_determination_date": "2017-04-06 08:50:07",
        "first_observation_date": "2012-04-15",
        "last_observation_date": "2012-04-22",
        "data_arc_in_days": 7,
        "observations_used": 17,
        "orbit_uncertainty": "9",
        "minimum_orbit_intersection": ".020294",
        "jupiter_tisserand_invariant": "2.990",
        "epoch_osculation": "2456033.5",
        "eccentricity": ".7729123833599832",
        "semi_major_axis": "2.455548073693908",
        "inclination": "1.811144732359818",
        "ascending_node_longitude": "333.1786546102269",
        "orbital_period": "1405.468409072554",
        "perihelion_distance": ".5576245596001337",
        "perihelion_argument": "130.7991875856842",
        "aphelion_distance": "4.353471587787682",
        "perihelion_time": "2455972.940424843785",
        "mean_anomaly": "15.51187270770734",
        "mean_motion": ".2561423634114681",
        "equinox": "J2000",
        "orbit_class": {
            "orbit_class_type": "APO",
            "orbit_class_description": "Near-Earth asteroid orbits which cross the Earth’s orbit similar to that of 1862 Apollo",
            "orbit_class_range": "a (semi-major axis) > 1.0 AU; q (perihelion) < 1.017 AU"
        }
    },
    "is_sentry_object": false
}